ORBCOMM FM33            
1 25983U 99065D   25143.60225100  .00000712  00000+0  26909-3 0  9995
2 25983  45.0277 115.8372 0010458 299.8380  60.1430 14.39950934332524
ORBCOMM FM36            
1 25984U 99065E   25143.46558421  .00000791  00000+0  30528-3 0  9994
2 25984  45.0381 208.0466 0004440 208.4558 151.6049 14.38070075330862
ORBCOMM FM34            
1 25986U 99065G   25143.46359270  .00000592  00000+0  24493-3 0  9990
2 25986  45.0379 213.3687 0005899 229.3163 130.7174 14.37077183331345
ORBCOMM FM38            
1 33060U 08031A   25142.51198772  .00001667  00000+0  23901-3 0  9995
2 33060  48.4411  77.5958 0005425 289.5466  70.4864 14.81228252910940
ORBCOMM FM41            
1 33061U 08031B   25143.55209380  .00001547  00000+0  22582-3 0  9990
2 33061  48.4446  80.3336 0004653 279.4154 250.8462 14.80818252910587
ORBCOMM FM29            
1 33062U 08031C   25143.26494691  .00001599  00000+0  23208-3 0  9993
2 33062  48.4394  89.5405 0006359 277.5944 235.5593 14.80916563910454
ORBCOMM FM39            
1 33063U 08031D   25143.37779632  .00001309  00000+0  20142-3 0  9990
2 33063  48.4399 113.0047 0007251 252.0641 107.9484 14.79481714910127
